ORBCOMM FM20            
1 25416U 98046D   25051.18579885  .00002382  00000+0  84720-3 0  9997
2 25416  44.9951  15.2075 0001993 330.4292  29.6442 14.36777543387470
ORBCOMM FM16            
1 25417U 98046E   25050.89803211  .00003464  00000+0  11737-2 0  9997
2 25417  44.9947   9.6175 0004242  38.4710 321.6441 14.38299140387360
ORBCOMM FM15            
1 25418U 98046F   25050.91547959  .00003129  00000+0  10718-2 0  9991
2 25418  44.9978  14.3378 0003708  36.3915 323.7185 14.37971694387361
ORBCOMM FM14            
1 25419U 98046G   25050.89184769  .00003071  00000+0  10460-2 0  9995
2 25419  44.9967  13.0078 0003139  18.4625 341.6336 14.38286294387329
ORBCOMM FM13            
1 25420U 98046H   25051.18645649  .00002858  00000+0  99872-3 0  9996
2 25420  44.9984  18.4959 0005082  25.8473 334.2628 14.37174998387530
ORBCOMM FM21            
1 25475U 98053A   25050.61211527  .00002019  00000+0  72340-3 0  9995
2 25475  45.0072 106.1321 0002567 283.5355  76.5207 14.36912009380337
ORBCOMM FM22            
1 25476U 98053B   25050.86866570  .00002577  00000+0  89404-3 0  9995
2 25476  45.0067 100.6663 0003864 311.2534  48.7981 14.37807154380389
ORBCOMM FM23            
1 25477U 98053C   25051.18225073  .00002317  00000+0  82091-3 0  9996
2 25477  45.0073 105.7033 0003188 300.6171  59.4362 14.37045052380879
